[{"OBJECT_NAME":"STARLINK-33584","OBJECT_ID":"2025-015D","EPOCH":"2026-03-09T21:28:31.618560","MEAN_MOTION":15.30194261,"ECCENTRICITY":0.00012812,"INCLINATION":53.1619,"RA_OF_ASC_NODE":321.4267,"ARG_OF_PERICENTER":85.3339,"MEAN_ANOMALY":274.7808,"EPHEMERIS_TYPE":0,"CLASSIFICATION_TYPE":"U","NORAD_CAT_ID":62761,"ELEMENT_SET_NO":999,"REV_AT_EPOCH":6451,"BSTAR":0.0010987009,"MEAN_MOTION_DOT":0.00032317,"MEAN_MOTION_DDOT":0},{"OBJECT_NAME":"CZ-4B R\/B","OBJECT_ID":"2004-035C","EPOCH":"2026-03-09T23:23:31.358400","MEAN_MOTION":15.2906998,"ECCENTRICITY":0.00309852,"INCLINATION":97.3501,"RA_OF_ASC_NODE":103.2135,"ARG_OF_PERICENTER":330.5139,"MEAN_ANOMALY":29.4353,"EPHEMERIS_TYPE":0,"CLASSIFICATION_TYPE":"U","NORAD_CAT_ID":28415,"ELEMENT_SET_NO":999,"REV_AT_EPOCH":17995,"BSTAR":0.00034109099,"MEAN_MOTION_DOT":9.691e-5,"MEAN_MOTION_DDOT":0}]
